{
  "links" : {
    "next" : "https://api.nasa.gov/neo/rest/v1/feed?start_date=2009-08-09&end_date=2009-08-09&detailed=true&api_key=t0TVs3DtDT2H8Oy2Zy8m2eVrNsAVKAexjcZXUckd",
    "prev" : "https://api.nasa.gov/neo/rest/v1/feed?start_date=2009-08-07&end_date=2009-08-07&detailed=true&api_key=t0TVs3DtDT2H8Oy2Zy8m2eVrNsAVKAexjcZXUckd",
    "self" : "https://api.nasa.gov/neo/rest/v1/feed?start_date=2009-08-08&end_date=2009-08-08&detailed=true&api_key=t0TVs3DtDT2H8Oy2Zy8m2eVrNsAVKAexjcZXUckd"
  },
  "element_count" : 9,
  "near_earth_objects" : {
    "2009-08-08" : [ {
      "links" : {
        "self" : "https://api.nasa.gov/neo/rest/v1/neo/2067381?api_key=t0TVs3DtDT2H8Oy2Zy8m2eVrNsAVKAexjcZXUckd"
      },
      "neo_reference_id" : "2067381",
      "name" : "67381 (2000 OL8)",
      "nasa_jpl_url" : "http://ssd.jpl.nasa.gov/sbdb.cgi?sstr=2067381",
      "absolute_magnitude_h" : 19.8,
      "estimated_diameter" : {
        "kilometers" : {
          "estimated_diameter_min" : 0.2914439045,
          "estimated_diameter_max" : 0.6516883822
        },
        "meters" : {
          "estimated_diameter_min" : 291.4439045349,
          "estimated_diameter_max" : 651.6883821679
        },
        "miles" : {
          "estimated_diameter_min" : 0.1810947904,
          "estimated_diameter_max" : 0.4049402617
        },
        "feet" : {
          "estimated_diameter_min" : 956.1808197541,
          "estimated_diameter_max" : 2138.0853117517
        }
      },
      "is_potentially_hazardous_asteroid" : true,
      "close_approach_data" : [ {
        "close_approach_date" : "2009-08-08",
        "epoch_date_close_approach" : 1249714800000,
        "relative_velocity" : {
          "kilometers_per_second" : "27.2610332861",
          "kilometers_per_hour" : "98139.7198299211",
          "miles_per_hour" : "60980.2053576529"
        },
        "miss_distance" : {
          "astronomical" : "0.3364476744",
          "lunar" : "130.8781433105",
          "kilometers" : "50331856",
          "miles" : "31274766"
        },
        "orbiting_body" : "Earth"
      } ],
      "orbital_data" : {
        "orbit_id" : "52",
        "orbit_determination_date" : "2017-08-31 06:18:20",
        "orbit_uncertainty" : "0",
        "minimum_orbit_intersection" : ".0175048",
        "jupiter_tisserand_invariant" : "4.772",
        "epoch_osculation" : "2458000.5",
        "eccentricity" : ".5429922362275801",
        "semi_major_axis" : "1.320476338954033",
        "inclination" : "10.66572263549738",
        "ascending_node_longitude" : "294.9695833916797",
        "orbital_period" : "554.2355287572093",
        "perihelion_distance" : ".6034679387797748",
        "perihelion_argument" : "266.7896100641379",
        "aphelion_distance" : "2.037484739128292",
        "perihelion_time" : "2457770.562234309099",
        "mean_anomaly" : "149.3545457728789",
        "mean_motion" : ".6495433463229007",
        "equinox" : "J2000"
      }
    }, {
      "links" : {
        "self" : "https://api.nasa.gov/neo/rest/v1/neo/2293726?api_key=t0TVs3DtDT2H8Oy2Zy8m2eVrNsAVKAexjcZXUckd"
      },
      "neo_reference_id" : "2293726",
      "name" : "293726 (2007 RQ17)",
      "nasa_jpl_url" : "http://ssd.jpl.nasa.gov/sbdb.cgi?sstr=2293726",
      "absolute_magnitude_h" : 22.6,
      "estimated_diameter" : {
        "kilometers" : {
          "estimated_diameter_min" : 0.0802703167,
          "estimated_diameter_max" : 0.1794898848
        },
        "meters" : {
          "estimated_diameter_min" : 80.2703167283,
          "estimated_diameter_max" : 179.4898847799
        },
        "miles" : {
          "estimated_diameter_min" : 0.049877647,
          "estimated_diameter_max" : 0.1115298092
        },
        "feet" : {
          "estimated_diameter_min" : 263.3540659348,
          "estimated_diameter_max" : 588.8775935812
        }
      },
      "is_potentially_hazardous_asteroid" : false,
      "close_approach_data" : [ {
        "close_approach_date" : "2009-08-08",
        "epoch_date_close_approach" : 1249714800000,
        "relative_velocity" : {
          "kilometers_per_second" : "6.3298088352",
          "kilometers_per_hour" : "22787.3118066688",
          "miles_per_hour" : "14159.1493834271"
        },
        "miss_distance" : {
          "astronomical" : "0.0215615375",
          "lunar" : "8.3874378204",
          "kilometers" : "3225560",
          "miles" : "2004270.125"
        },
        "orbiting_body" : "Earth"
      } ],
      "orbital_data" : {
        "orbit_id" : "38",
        "orbit_determination_date" : "2017-04-06 09:24:11",
        "orbit_uncertainty" : "0",
        "minimum_orbit_intersection" : ".0206457",
        "jupiter_tisserand_invariant" : "4.319",
        "epoch_osculation" : "2458000.5",
        "eccentricity" : ".3692685560132113",
        "semi_major_axis" : "1.578815747122662",
        "inclination" : "2.008572387244131",
        "ascending_node_longitude" : "350.5521610990256",
        "orbital_period" : "724.5954472639381",
        "perihelion_distance" : ".995808735971757",
        "perihelion_argument" : "302.1856771379752",
        "aphelion_distance" : "2.161822758273567",
        "perihelion_time" : "2457937.936319111508",
        "mean_anomaly" : "31.08344829505001",
        "mean_motion" : ".4968289565706696",
        "equinox" : "J2000"
      }
    }, {
      "links" : {
        "self" : "https://api.nasa.gov/neo/rest/v1/neo/3160727?api_key=t0TVs3DtDT2H8Oy2Zy8m2eVrNsAVKAexjcZXUckd"
      },
      "neo_reference_id" : "3160727",
      "name" : "(2003 SK5)",
      "nasa_jpl_url" : "http://ssd.jpl.nasa.gov/sbdb.cgi?sstr=3160727",
      "absolute_magnitude_h" : 20.0,
      "estimated_diameter" : {
        "kilometers" : {
          "estimated_diameter_min" : 0.2658,
          "estimated_diameter_max" : 0.5943468684
        },
        "meters" : {
          "estimated_diameter_min" : 265.8,
          "estimated_diameter_max" : 594.3468684194
        },
        "miles" : {
          "estimated_diameter_min" : 0.1651604118,
          "estimated_diameter_max" : 0.369309908
        },
        "feet" : {
          "estimated_diameter_min" : 872.047272,
          "estimated_diameter_max" : 1949.9569797852
        }
      },
      "is_potentially_hazardous_asteroid" : false,
      "close_approach_data" : [ {
        "close_approach_date" : "2009-08-08",
        "epoch_date_close_approach" : 1249714800000,
        "relative_velocity" : {
          "kilometers_per_second" : "9.8224765059",
          "kilometers_per_hour" : "35360.9154213216",
          "miles_per_hour" : "21971.8976960984"
        },
        "miss_distance" : {
          "astronomical" : "0.2641618915",
          "lunar" : "102.758972168",
          "kilometers" : "39518056",
          "miles" : "24555382"
        },
        "orbiting_body" : "Earth"
      } ],
      "orbital_data" : {
        "orbit_id" : "38",
        "orbit_determination_date" : "2017-04-06 09:13:50",
        "orbit_uncertainty" : "0",
        "minimum_orbit_intersection" : ".143959",
        "jupiter_tisserand_invariant" : "3.602",
        "epoch_osculation" : "2458000.5",
        "eccentricity" : ".4570654526247082",
        "semi_major_axis" : "2.097729189410295",
        "inclination" : "6.667337862373259",
        "ascending_node_longitude" : "336.179424221893",
        "orbital_period" : "1109.743369545708",
        "perihelion_distance" : "1.138929647968416",
        "perihelion_argument" : "319.1082482204115",
        "aphelion_distance" : "3.056528730852174",
        "perihelion_time" : "2458374.301566513062",
        "mean_anomaly" : "238.7390241405182",
        "mean_motion" : ".3243993249965278",
        "equinox" : "J2000"
      }
    } ]
  }
}